SL-8 R/B                
1 11574U 79089B   26072.00539620  .00000304  00000+0  99734-4 0  9995
2 11574  74.0666  84.9050 0017117 257.2614 102.6629 14.42352959436585
SL-14 R/B               
1 11672U 80005B   26071.74779340  .00000650  00000+0  63179-4 0  9997
2 11672  82.5139 304.3355 0016427 148.5125 211.7081 14.90934299476946
SL-8 R/B                
1 12139U 81003B   26071.98082715  .00020359  00000+0  52050-3 0  9997
2 12139  82.9386 286.9806 0261833 167.1764 193.6307 15.11108098315178
SL-3 R/B                
1 12465U 81046B   26071.96405388  .00012424  00000+0  28796-3 0  9993
2 12465  81.2298 285.8116 0019294  11.0640 349.1023 15.42085075438934
SL-3 R/B                
1 12904U 81103B   26071.92922715  .00007105  00000+0  31485-3 0  9998
2 12904  81.1586 209.6316 0012336 275.1498  84.8325 15.21420506973729
SL-3 R/B                
1 13068U 82013B   26071.93595046  .00004708  00000+0  20339-3 0  9997
2 13068  81.1758 156.9663 0022779 166.5279 193.6567 15.22051960404847
SL-3 R/B                
1 13154U 82039B   26071.90361776  .00003167  00000+0  19112-3 0  9994
2 13154  81.1577 212.2566 0029588 313.9841  45.8944 15.10102679382122
SL-3 R/B                
1 13403U 82079B   26071.94797752  .00007490  00000+0  29777-3 0  9997
2 13403  81.1477 189.2302 0025193 153.7775 206.4740 15.24852448378195
SL-14 R/B               
1 13553U 82092B   26071.68307044  .00000548  00000+0  58829-4 0  9998
2 13553  82.5690 138.6001 0018871 292.9050 185.7518 14.86669734329373
SL-3 R/B                
1 13819U 83010B   26071.73746105  .00017725  00000+0  35449-3 0  9992
2 13819  81.1062 358.5108 0017732  41.1623 319.0956 15.46474228358416
SL-3 R/B                
1 14208U 83075B   26072.00424938  .00012234  00000+0  32189-3 0  9992
2 14208  97.6145  76.7071 0020446 213.2813 146.7148 15.38504931330661
COSMOS 1536             
1 14699U 84013A   26071.54353188  .00006544  00000+0  26945-3 0  9995
2 14699  82.5430 105.0133 0012526 272.1389  87.8414 15.23867314273053
SL-14 R/B               
1 14820U 84027B   26071.52131228  .00000645  00000+0  70929-4 0  9991
2 14820  82.5390 242.3562 0017146 328.1982  31.8197 14.85980010248054
SL-8 R/B                
1 15483U 85006B   26072.00889546  .00000400  00000+0  14113-3 0  9993
2 15483  74.0433 255.0401 0018321 172.0514 306.5614 14.37785819154509
SL-12 R/B(2)            
1 15772U 85042D   26071.45534860  .00000161  00000+0  93673-4 0  9991
2 15772  71.1063  81.8850 0033115 123.5864  28.0577 14.21983223114789
SL-14 R/B               
1 15945U 85069B   26071.84182156  .00000658  00000+0  71593-4 0  9990
2 15945  82.5290  21.9693 0018758 177.1716 182.9610 14.86437421173302
SL-16 R/B               
1 16182U 85097B   26071.61899201 -.00000120  00000+0 -36132-4 0  9992
2 16182  71.0022 134.3878 0009838 256.2098 265.4106 14.16598266 87643
